{"type": "FeatureCollection", "features": [ {"type": "Feature", "properties": {"norad_id": 37216, "name": "COSMO-SKYMED 4", "group": "resource", "lat": 56.17140386295269, "lon": -5.267794321599089, "alt_km": 616.4494728537638, "timestamp": "2025-12-07T09:35:09.448821+00:00", "meta": {"OBJECT_NAME": "COSMO-SKYMED 4", "OBJECT_ID": "2010-060A", "EPOCH": "2025-12-06T21:41:29.560704", "MEAN_MOTION": 14.82157529, "ECCENTRICITY": 0.00013622, "INCLINATION": 97.8814, "RA_OF_ASC_NODE": 162.3151, "ARG_OF_PERICENTER": 82.8625, "MEAN_ANOMALY": 277.2743, "EPHEMERIS_TYPE": 0, "CLASSIFICATION_TYPE": "U", "NORAD_CAT_ID": 37216, "ELEMENT_SET_NO": 999, "REV_AT_EPOCH": 81608, "BSTAR": 0.00014058318, "MEAN_MOTION_DOT": 1.067e-05, "MEAN_MOTION_DDOT": 0}, "tle": {"line1": "1 37216U 10060A   25340.90381436  .00001067  00000+0  14058-3 0  9998", "line2": "2 37216  97.8814 162.3151 0001362  82.8625 277.2743 14.82157529816089"}}, "geometry": {"type": "Point", "coordinates": [-5.267794321599089, 56.17140386295269]}}, {"type": "Feature", "properties": {"norad_id": 37387, "name": "RESOURCESAT-2", "group": "resource", "lat": 9.405801104330955, "lon": -133.55650068524002, "alt_km": 823.5365553407592, "timestamp": "2025-12-07T09:35:09.448832+00:00", "meta": {"OBJECT_NAME": "RESOURCESAT-2", "OBJECT_ID": "2011-015A", "EPOCH": "2025-12-06T20:57:48.109536", "MEAN_MOTION": 14.21593716, "ECCENTRICITY": 0.00066727, "INCLINATION": 98.7884, "RA_OF_ASC_NODE": 44.4515, "ARG_OF_PERICENTER": 57.767, "MEAN_ANOMALY": 302.4153, "EPHEMERIS_TYPE": 0, "CLASSIFICATION_TYPE": "U", "NORAD_CAT_ID": 37387, "ELEMENT_SET_NO": 999, "REV_AT_EPOCH": 75885, "BSTAR": 0.00016405672, "MEAN_MOTION_DOT": 3.15e-06, "MEAN_MOTION_DDOT": 0}, "tle": {"line1": "1 37387U 11015A   25340.87347349  .00000315  00000+0  16406-3 0  9993", "line2": "2 37387  98.7884  44.4515 0006672  57.7670 302.4153 14.21593716758850"}}, "geometry": {"type": "Point", "coordinates": [-133.55650068524002, 9.405801104330955]}}, {"type": "Feature", "properties": {"norad_id": 37781, "name": "HAIYANG-2A", "group": "resource", "lat": -40.50028438775251, "lon": -9.505477448290863, "alt_km": 975.2804427236897, "timestamp": "2025-12-07T09:35:09.448842+00:00", "meta": {"OBJECT_NAME": "HAIYANG-2A", "OBJECT_ID": "2011-043A", "EPOCH": "2025-12-06T23:20:09.813120", "MEAN_MOTION": 13.78834643, "ECCENTRICITY": 0.00016555, "INCLINATION": 99.3377, "RA_OF_ASC_NODE": 341.9958, "ARG_OF_PERICENTER": 92.6112, "MEAN_ANOMALY": 267.5229, "EPHEMERIS_TYPE": 0, "CLASSIFICATION_TYPE": "U", "NORAD_CAT_ID": 37781, "ELEMENT_SET_NO": 999, "REV_AT_EPOCH": 72019, "BSTAR": 4.8960206e-05, "MEAN_MOTION_DOT": 6e-08, "MEAN_MOTION_DDOT": 0}, "tle": {"line1": "1 37781U 11043A   25340.97233580  .00000006  00000+0  48960-4 0  9992", "line2": "2 37781  99.3377 341.9958 0001655  92.6112 267.5229 13.78834643720192"}}, "geometry": {"type": "Point", "coordinates": [-9.505477448290863, -40.50028438775251]}}, {"type": "Feature", "properties": {"norad_id": 37791, "name": "RASAT", "group": "resource", "lat": 13.419198034505422, "lon": -107.32468297136532, "alt_km": 667.5665794246288, "timestamp": "2025-12-07T09:35:09.448853+00:00", "meta": {"OBJECT_NAME": "RASAT", "OBJECT_ID": "2011-044D", "EPOCH": "2025-12-06T21:52:01.821216", "MEAN_MOTION": 14.67896746, "ECCENTRICITY": 0.00219444, "INCLINATION": 98.0656, "RA_OF_ASC_NODE": 70.2555, "ARG_OF_PERICENTER": 82.6325, "MEAN_ANOMALY": 24.698, "EPHEMERIS_TYPE": 0, "CLASSIFICATION_TYPE": "U", "NORAD_CAT_ID": 37791, "ELEMENT_SET_NO": 999, "REV_AT_EPOCH": 76497, "BSTAR": 0.00021306928, "MEAN_MOTION_DOT": 1.174e-05, "MEAN_MOTION_DDOT": 0}, "tle": {"line1": "1 37791U 11044D   25340.91113219  .00001174  00000+0  21307-3 0  9996", "line2": "2 37791  98.0656  70.2555 0021944  82.6325  24.6980 14.67896746764973"}}, "geometry": {"type": "Point", "coordinates": [-107.32468297136532, 13.419198034505422]}}, {"type": "Feature", "properties": {"norad_id": 37841, "name": "SRMSAT", "group": "resource", "lat": -17.04624232924942, "lon": 17.875532693893742, "alt_km": 845.6319723080687, "timestamp": "2025-12-07T09:35:09.448863+00:00", "meta": {"OBJECT_NAME": "SRMSAT", "OBJECT_ID": "2011-058D", "EPOCH": "2025-12-06T19:05:36.707136", "MEAN_MOTION": 14.11508393, "ECCENTRICITY": 0.00117158, "INCLINATION": 19.9699, "RA_OF_ASC_NODE": 143.9277, "ARG_OF_PERICENTER": 247.4073, "MEAN_ANOMALY": 156.7228, "EPHEMERIS_TYPE": 0, "CLASSIFICATION_TYPE": "U", "NORAD_CAT_ID": 37841, "ELEMENT_SET_NO": 999, "REV_AT_EPOCH": 73060, "BSTAR": 0.0001534577, "MEAN_MOTION_DOT": 5.48e-06, "MEAN_MOTION_DDOT": 0}, "tle": {"line1": "1 37841U 11058D   25340.79556374  .00000548  00000+0  15346-3 0  9996", "line2": "2 37841  19.9699 143.9277 0011715 247.4073 156.7228 14.11508393730605"}}, "geometry": {"type": "Point", "coordinates": [17.875532693893742, -17.04624232924942]}}, {"type": "Feature", "properties": {"norad_id": 38012, "name": "PLEIADES 1A", "group": "resource", "lat": 38.824586113838365, "lon": -119.10010602601776, "alt_km": 694.4802631207685, "timestamp": "2025-12-07T09:35:09.448873+00:00", "meta": {"OBJECT_NAME": "PLEIADES 1A", "OBJECT_ID": "2011-076F", "EPOCH": "2025-12-06T21:56:55.453344", "MEAN_MOTION": 14.58552794, "ECCENTRICITY": 0.00013563, "INCLINATION": 98.1831, "RA_OF_ASC_NODE": 53.7729, "ARG_OF_PERICENTER": 79.4165, "MEAN_ANOMALY": 36.6651, "EPHEMERIS_TYPE": 0, "CLASSIFICATION_TYPE": "U", "NORAD_CAT_ID": 38012, "ELEMENT_SET_NO": 999, "REV_AT_EPOCH": 74396, "BSTAR": 0.00018287354, "MEAN_MOTION_DOT": 8.05e-06, "MEAN_MOTION_DDOT": 0}, "tle": {"line1": "1 38012U 11076F   25340.91453071  .00000805  00000+0  18287-3 0  9994", "line2": "2 38012  98.1831  53.7729 0001356  79.4165  36.6651 14.58552794743962"}}, "geometry": {"type": "Point", "coordinates": [-119.10010602601776, 38.824586113838365]}}, {"type": "Feature", "properties": {"norad_id": 38038, "name": "ZIYUAN 1-02C (ZY 1-02C)", "group": "resource", "lat": 78.87524839923563, "lon": -1.47360565185404, "alt_km": 756.0786632037307, "timestamp": "2025-12-07T09:35:09.448884+00:00", "meta": {"OBJECT_NAME": "ZIYUAN 1-02C (ZY 1-02C)", "OBJECT_ID": "2011-079A", "EPOCH": "2025-12-06T22:18:59.174784", "MEAN_MOTION": 14.3800205, "ECCENTRICITY": 0.00069598, "INCLINATION": 98.4342, "RA_OF_ASC_NODE": 47.0506, "ARG_OF_PERICENTER": 154.5635, "MEAN_ANOMALY": 18.8149, "EPHEMERIS_TYPE": 0, "CLASSIFICATION_TYPE": "U", "NORAD_CAT_ID": 38038, "ELEMENT_SET_NO": 999, "REV_AT_EPOCH": 73157, "BSTAR": 0.00031572486, "MEAN_MOTION_DOT": 9.12e-06, "MEAN_MOTION_DDOT": 0}, "tle": {"line1": "1 38038U 11079A   25340.92985156  .00000912  00000+0  31572-3 0  9991", "line2": "2 38038  98.4342  47.0506 0006959 154.5635  18.8149 14.38002050731571"}}, "geometry": {"type": "Point", "coordinates": [-1.47360565185404, 78.87524839923563]}}, {"type": "Feature", "properties": {"norad_id": 38046, "name": "ZIYUAN 3-1 (ZY 3-1)", "group": "resource", "lat": -79.49468769863016, "lon": -175.10615354392002, "alt_km": 373.81340560793706, "timestamp": "2025-12-07T09:35:09.448894+00:00", "meta": {"OBJECT_NAME": "ZIYUAN 3-1 (ZY 3-1)", "OBJECT_ID": "2012-001A", "EPOCH": "2025-12-06T21:44:43.133856", "MEAN_MOTION": 15.67465053, "ECCENTRICITY": 0.00020457, "INCLINATION": 97.1761, "RA_OF_ASC_NODE": 47.1917, "ARG_OF_PERICENTER": 17.367, "MEAN_ANOMALY": 342.7661, "EPHEMERIS_TYPE": 0, "CLASSIFICATION_TYPE": "U", "NORAD_CAT_ID": 38046, "ELEMENT_SET_NO": 999, "REV_AT_EPOCH": 77405, "BSTAR": 0.00080846838, "MEAN_MOTION_DOT": 0.0008813, "MEAN_MOTION_DDOT": 0}, "tle": {"line1": "1 38046U 12001A   25340.90605479  .00088130  00000+0  80847-3 0  9998", "line2": "2 38046  97.1761  47.1917 0002045  17.3670 342.7661 15.67465053774052"}}, "geometry": {"type": "Point", "coordinates": [-175.10615354392002, -79.49468769863016]}}, {"type": "Feature", "properties": {"norad_id": 38338, "name": "ARIRANG-3 (KOMPSAT-3)", "group": "resource", "lat": -22.410672967400505, "lon": -60.58660956873005, "alt_km": 689.2028078478234, "timestamp": "2025-12-07T09:35:09.448905+00:00", "meta": {"OBJECT_NAME": "ARIRANG-3 (KOMPSAT-3)", "OBJECT_ID": "2012-025B", "EPOCH": "2025-12-06T22:11:20.507424", "MEAN_MOTION": 14.61700493, "ECCENTRICITY": 0.00057739, "INCLINATION": 98.3315, "RA_OF_ASC_NODE": 295.4704, "ARG_OF_PERICENTER": 357.5765, "MEAN_ANOMALY": 2.5407, "EPHEMERIS_TYPE": 0, "CLASSIFICATION_TYPE": "U", "NORAD_CAT_ID": 38338, "ELEMENT_SET_NO": 999, "REV_AT_EPOCH": 72325, "BSTAR": 0.00023379495, "MEAN_MOTION_DOT": 1.116e-05, "MEAN_MOTION_DDOT": 0}, "tle": {"line1": "1 38338U 12025B   25340.92454291  .00001116  00000+0  23379-3 0  9990", "line2": "2 38338  98.3315 295.4704 0005773 357.5765   2.5407 14.61700493723259"}}, "geometry": {"type": "Point", "coordinates": [-60.58660956873005, -22.410672967400505]}}, {"type": "Feature", "properties": {"norad_id": 38709, "name": "EXACTVIEW-1 (ADS-1B)", "group": "resource", "lat": -38.10302455843608, "lon": 96.78711313966832, "alt_km": 809.8922174422687, "timestamp": "2025-12-07T09:35:09.448915+00:00", "meta": {"OBJECT_NAME": "EXACTVIEW-1 (ADS-1B)", "OBJECT_ID": "2012-039C", "EPOCH": "2025-12-06T21:58:11.340192", "MEAN_MOTION": 14.24904131, "ECCENTRICITY": 0.00109808, "INCLINATION": 98.9636, "RA_OF_ASC_NODE": 89.1833, "ARG_OF_PERICENTER": 10.8155, "MEAN_ANOMALY": 349.3258, "EPHEMERIS_TYPE": 0, "CLASSIFICATION_TYPE": "U", "NORAD_CAT_ID": 38709, "ELEMENT_SET_NO": 999, "REV_AT_EPOCH": 69532, "BSTAR": 0.00014850276, "MEAN_MOTION_DOT": 3.01e-06, "MEAN_MOTION_DDOT": 0}, "tle": {"line1": "1 38709U 12039C   25340.91540903  .00000301  00000+0  14850-3 0  9991", "line2": "2 38709  98.9636  89.1833 0010980  10.8155 349.3258 14.24904131695328"}}, "geometry": {"type": "Point", "coordinates": [96.78711313966832, -38.10302455843608]}}]}